[{"OBJECT_NAME":"STARLINK-36159","OBJECT_ID":"2025-298E","EPOCH":"2026-03-09T22:03:03.380832","MEAN_MOTION":14.99153219,"ECCENTRICITY":0.00023256,"INCLINATION":70.0019,"RA_OF_ASC_NODE":13.8101,"ARG_OF_PERICENTER":251.4113,"MEAN_ANOMALY":108.6794,"EPHEMERIS_TYPE":0,"CLASSIFICATION_TYPE":"U","NORAD_CAT_ID":67079,"ELEMENT_SET_NO":999,"REV_AT_EPOCH":1325,"BSTAR":0.0001811037,"MEAN_MOTION_DOT":2.114e-5,"MEAN_MOTION_DDOT":0},{"OBJECT_NAME":"KUIPER-00232","OBJECT_ID":"2025-301R","EPOCH":"2026-03-09T22:00:01.999584","MEAN_MOTION":15.06812029,"ECCENTRICITY":0.0002965,"INCLINATION":51.8873,"RA_OF_ASC_NODE":65.5535,"ARG_OF_PERICENTER":139.5556,"MEAN_ANOMALY":115.4886,"EPHEMERIS_TYPE":0,"CLASSIFICATION_TYPE":"U","NORAD_CAT_ID":67148,"ELEMENT_SET_NO":999,"REV_AT_EPOCH":493,"BSTAR":-0.072865786,"MEAN_MOTION_DOT":-0.01020247,"MEAN_MOTION_DDOT":0}]
